CCSDS_OMM_VERS = 2.0
CREATION_DATE  = 
ORIGINATOR     = 

OBJECT_NAME    = STARLINK-35657
OBJECT_ID      = 2025-257V
CENTER_NAME    = EARTH
REF_FRAME      = TEME
TIME_SYSTEM    = UTC
MEAN_ELEMENT_THEORY = SGP/SGP4

EPOCH          = 2025-11-28T04:00:03.998880
MEAN_MOTION    = 15.54541406
ECCENTRICITY   = .0001713
INCLINATION    = 53.1591
RA_OF_ASC_NODE = 333.4887
ARG_OF_PERICENTER = 92.1420
MEAN_ANOMALY   = 165.8911

EPHEMERIS_TYPE = 0
CLASSIFICATION_TYPE = U
NORAD_CAT_ID   = 66399
ELEMENT_SET_NO = 999
REV_AT_EPOCH   = 415
BSTAR          = -.34613E-1
MEAN_MOTION_DOT = -.207035E-1
MEAN_MOTION_DDOT = 0

CCSDS_OMM_VERS = 2.0
CREATION_DATE  = 
ORIGINATOR     = 

OBJECT_NAME    = STARLINK-35667
OBJECT_ID      = 2025-257W
CENTER_NAME    = EARTH
REF_FRAME      = TEME
TIME_SYSTEM    = UTC
MEAN_ELEMENT_THEORY = SGP/SGP4

EPOCH          = 2025-11-28T04:00:03.998880
MEAN_MOTION    = 15.54542355
ECCENTRICITY   = .0001546
INCLINATION    = 53.1591
RA_OF_ASC_NODE = 333.4804
ARG_OF_PERICENTER = 92.1587
MEAN_ANOMALY   = 169.7086

EPHEMERIS_TYPE = 0
CLASSIFICATION_TYPE = U
NORAD_CAT_ID   = 66400
ELEMENT_SET_NO = 999
REV_AT_EPOCH   = 415
BSTAR          = -.34654E-1
MEAN_MOTION_DOT = -.2072501E-1
MEAN_MOTION_DDOT = 0

CCSDS_OMM_VERS = 2.0
CREATION_DATE  = 
ORIGINATOR     = 

OBJECT_NAME    = STARLINK-35668
OBJECT_ID      = 2025-257X
CENTER_NAME    = EARTH
REF_FRAME      = TEME
TIME_SYSTEM    = UTC
MEAN_ELEMENT_THEORY = SGP/SGP4

EPOCH          = 2025-11-28T04:00:03.998880
MEAN_MOTION    = 15.54546200
ECCENTRICITY   = .0001566
INCLINATION    = 53.1594
RA_OF_ASC_NODE = 333.4766
ARG_OF_PERICENTER = 89.1674
MEAN_ANOMALY   = 174.6138

EPHEMERIS_TYPE = 0
CLASSIFICATION_TYPE = U
NORAD_CAT_ID   = 66401
ELEMENT_SET_NO = 999
REV_AT_EPOCH   = 415
BSTAR          = -.34717E-1
MEAN_MOTION_DOT = -.2076134E-1
MEAN_MOTION_DDOT = 0

CCSDS_OMM_VERS = 2.0
CREATION_DATE  = 
ORIGINATOR     = 

OBJECT_NAME    = STARLINK-35644
OBJECT_ID      = 2025-257Y
CENTER_NAME    = EARTH
REF_FRAME      = TEME
TIME_SYSTEM    = UTC
MEAN_ELEMENT_THEORY = SGP/SGP4

EPOCH          = 2025-11-28T04:00:03.998880
MEAN_MOTION    = 15.54542305
ECCENTRICITY   = .000151
INCLINATION    = 53.1594
RA_OF_ASC_NODE = 333.4847
ARG_OF_PERICENTER = 91.6635
MEAN_ANOMALY   = 168.2866

EPHEMERIS_TYPE = 0
CLASSIFICATION_TYPE = U
NORAD_CAT_ID   = 66402
ELEMENT_SET_NO = 999
REV_AT_EPOCH   = 415
BSTAR          = -.34651E-1
MEAN_MOTION_DOT = -.2072317E-1
MEAN_MOTION_DDOT = 0

CCSDS_OMM_VERS = 2.0
CREATION_DATE  = 
ORIGINATOR     = 

OBJECT_NAME    = STARLINK-35602
OBJECT_ID      = 2025-257Z
CENTER_NAME    = EARTH
REF_FRAME      = TEME
TIME_SYSTEM    = UTC
MEAN_ELEMENT_THEORY = SGP/SGP4

EPOCH          = 2025-11-28T04:00:03.998880
MEAN_MOTION    = 15.54544954
ECCENTRICITY   = .0001528
INCLINATION    = 53.1590
RA_OF_ASC_NODE = 333.4728
ARG_OF_PERICENTER = 95.0769
MEAN_ANOMALY   = 170.6217

EPHEMERIS_TYPE = 0
CLASSIFICATION_TYPE = U
NORAD_CAT_ID   = 66403
ELEMENT_SET_NO = 999
REV_AT_EPOCH   = 415
BSTAR          = -.34682E-1
MEAN_MOTION_DOT = -.2074168E-1
MEAN_MOTION_DDOT = 0

CCSDS_OMM_VERS = 2.0
CREATION_DATE  = 
ORIGINATOR     = 

OBJECT_NAME    = STARLINK-35691
OBJECT_ID      = 2025-257AA
CENTER_NAME    = EARTH
REF_FRAME      = TEME
TIME_SYSTEM    = UTC
MEAN_ELEMENT_THEORY = SGP/SGP4

EPOCH          = 2025-11-28T04:00:03.998880
MEAN_MOTION    = 15.54543600
ECCENTRICITY   = .000162
INCLINATION    = 53.1591
RA_OF_ASC_NODE = 333.4684
ARG_OF_PERICENTER = 90.6185
MEAN_ANOMALY   = 176.9974

EPHEMERIS_TYPE = 0
CLASSIFICATION_TYPE = U
NORAD_CAT_ID   = 66404
ELEMENT_SET_NO = 999
REV_AT_EPOCH   = 415
BSTAR          = -.34661E-1
MEAN_MOTION_DOT = -.2072986E-1
MEAN_MOTION_DDOT = 0

CCSDS_OMM_VERS = 2.0
CREATION_DATE  = 
ORIGINATOR     = 

OBJECT_NAME    = STARLINK-35683
OBJECT_ID      = 2025-257AB
CENTER_NAME    = EARTH
REF_FRAME      = TEME
TIME_SYSTEM    = UTC
MEAN_ELEMENT_THEORY = SGP/SGP4

EPOCH          = 2025-11-28T04:00:03.998880
MEAN_MOTION    = 15.54541118
ECCENTRICITY   = .0001537
INCLINATION    = 53.1591
RA_OF_ASC_NODE = 333.4637
ARG_OF_PERICENTER = 90.2776
MEAN_ANOMALY   = 179.2539

EPHEMERIS_TYPE = 0
CLASSIFICATION_TYPE = U
NORAD_CAT_ID   = 66405
ELEMENT_SET_NO = 999
REV_AT_EPOCH   = 399
BSTAR          = -.34548E-1
MEAN_MOTION_DOT = -.2066761E-1
MEAN_MOTION_DDOT = 0

CCSDS_OMM_VERS = 2.0
CREATION_DATE  = 
ORIGINATOR     = 

OBJECT_NAME    = STARLINK-34840
OBJECT_ID      = 2025-257AC
CENTER_NAME    = EARTH
REF_FRAME      = TEME
TIME_SYSTEM    = UTC
MEAN_ELEMENT_THEORY = SGP/SGP4

EPOCH          = 2025-11-28T00:00:02.000160
MEAN_MOTION    = 15.55262880
ECCENTRICITY   = .00011606
INCLINATION    = 53.1594
RA_OF_ASC_NODE = 334.2548
ARG_OF_PERICENTER = 88.6763
MEAN_ANOMALY   = 333.0117

EPHEMERIS_TYPE = 0
CLASSIFICATION_TYPE = U
NORAD_CAT_ID   = 66406
ELEMENT_SET_NO = 999
REV_AT_EPOCH   = 406
BSTAR          = -.32796667E-1
MEAN_MOTION_DOT = -.2020393E-1
MEAN_MOTION_DDOT = 0

CCSDS_OMM_VERS = 2.0
CREATION_DATE  = 
ORIGINATOR     = 

OBJECT_NAME    = STARLINK-35686
OBJECT_ID      = 2025-257AD
CENTER_NAME    = EARTH
REF_FRAME      = TEME
TIME_SYSTEM    = UTC
MEAN_ELEMENT_THEORY = SGP/SGP4

EPOCH          = 2025-11-28T04:00:03.998880
MEAN_MOTION    = 15.54540830
ECCENTRICITY   = .0001673
INCLINATION    = 53.1592
RA_OF_ASC_NODE = 333.4599
ARG_OF_PERICENTER = 95.2356
MEAN_ANOMALY   = 176.2161

EPHEMERIS_TYPE = 0
CLASSIFICATION_TYPE = U
NORAD_CAT_ID   = 66407
ELEMENT_SET_NO = 999
REV_AT_EPOCH   = 415
BSTAR          = -.346E-1
MEAN_MOTION_DOT = -.2069602E-1
MEAN_MOTION_DDOT = 0

CCSDS_OMM_VERS = 2.0
CREATION_DATE  = 
ORIGINATOR     = 

OBJECT_NAME    = STARLINK-35679
OBJECT_ID      = 2025-257AE
CENTER_NAME    = EARTH
REF_FRAME      = TEME
TIME_SYSTEM    = UTC
MEAN_ELEMENT_THEORY = SGP/SGP4

EPOCH          = 2025-11-28T04:00:03.998880
MEAN_MOTION    = 15.54542839
ECCENTRICITY   = .0001471
INCLINATION    = 53.1587
RA_OF_ASC_NODE = 333.4572
ARG_OF_PERICENTER = 91.2375
MEAN_ANOMALY   = 182.1292

EPHEMERIS_TYPE = 0
CLASSIFICATION_TYPE = U
NORAD_CAT_ID   = 66408
ELEMENT_SET_NO = 999
REV_AT_EPOCH   = 415
BSTAR          = -.34625E-1
MEAN_MOTION_DOT = -.2070952E-1
MEAN_MOTION_DDOT = 0

CCSDS_OMM_VERS = 2.0
CREATION_DATE  = 
ORIGINATOR     = 

OBJECT_NAME    = CHUTIAN-2 A
OBJECT_ID      = 2025-256A
CENTER_NAME    = EARTH
REF_FRAME      = TEME
TIME_SYSTEM    = UTC
MEAN_ELEMENT_THEORY = SGP/SGP4

EPOCH          = 2025-11-28T03:57:06.936768
MEAN_MOTION    = 14.49907319
ECCENTRICITY   = .0012943
INCLINATION    = 98.2783
RA_OF_ASC_NODE = 37.1828
ARG_OF_PERICENTER = 222.8173
MEAN_ANOMALY   = 137.2014

EPHEMERIS_TYPE = 0
CLASSIFICATION_TYPE = U
NORAD_CAT_ID   = 66409
ELEMENT_SET_NO = 999
REV_AT_EPOCH   = 276
BSTAR          = .26338E-4
MEAN_MOTION_DOT = .58E-6
MEAN_MOTION_DDOT = 0

CCSDS_OMM_VERS = 2.0
CREATION_DATE  = 
ORIGINATOR     = 

OBJECT_NAME    = CHUTIAN-2 B
OBJECT_ID      = 2025-256B
CENTER_NAME    = EARTH
REF_FRAME      = TEME
TIME_SYSTEM    = UTC
MEAN_ELEMENT_THEORY = SGP/SGP4

EPOCH          = 2025-11-28T05:25:19.589088
MEAN_MOTION    = 14.50994739
ECCENTRICITY   = .0013007
INCLINATION    = 98.2812
RA_OF_ASC_NODE = 37.2670
ARG_OF_PERICENTER = 226.8461
MEAN_ANOMALY   = 133.1647

EPHEMERIS_TYPE = 0
CLASSIFICATION_TYPE = U
NORAD_CAT_ID   = 66410
ELEMENT_SET_NO = 999
REV_AT_EPOCH   = 277
BSTAR          = .2008E-3
MEAN_MOTION_DOT = .75E-5
MEAN_MOTION_DDOT = 0

