STARLINK-35657          
1 66399U 25257V   25332.16671295 -.02070350  00000+0 -34613-1 0  9992
2 66399  53.1591 333.4887 0001713  92.1420 165.8911 15.54541406  4151
STARLINK-35667          
1 66400U 25257W   25332.16671295 -.02072501  00000+0 -34654-1 0  9990
2 66400  53.1591 333.4804 0001546  92.1587 169.7086 15.54542355  4151
STARLINK-35668          
1 66401U 25257X   25332.16671295 -.02076134  00000+0 -34717-1 0  9997
2 66401  53.1594 333.4766 0001566  89.1674 174.6138 15.54546200  4153
STARLINK-35644          
1 66402U 25257Y   25332.16671295 -.02072317  00000+0 -34651-1 0  9994
2 66402  53.1594 333.4847 0001510  91.6635 168.2866 15.54542305  4157
STARLINK-35602          
1 66403U 25257Z   25332.16671295 -.02074168  00000+0 -34682-1 0  9995
2 66403  53.1590 333.4728 0001528  95.0769 170.6217 15.54544954  4156
STARLINK-35691          
1 66404U 25257AA  25332.16671295 -.02072986  00000+0 -34661-1 0  9999
2 66404  53.1591 333.4684 0001620  90.6185 176.9974 15.54543600  4151
STARLINK-35683          
1 66405U 25257AB  25332.16671295 -.02066761  00000+0 -34548-1 0  9998
2 66405  53.1591 333.4637 0001537  90.2776 179.2539 15.54541118  3995
STARLINK-34840          
1 66406U 25257AC  25332.00002315 -.02020393  00000+0 -32797-1 0  9998
2 66406  53.1594 334.2548 0001160  88.6763 333.0117 15.55262880  4066
STARLINK-35686          
1 66407U 25257AD  25332.16671295 -.02069602  00000+0 -34600-1 0  9996
2 66407  53.1592 333.4599 0001673  95.2356 176.2161 15.54540830  4152
STARLINK-35679          
1 66408U 25257AE  25332.16671295 -.02070952  00000+0 -34625-1 0  9994
2 66408  53.1587 333.4572 0001471  91.2375 182.1292 15.54542839  4153
CHUTIAN-2 A             
1 66409U 25256A   25332.16466362  .00000058  00000+0  26338-4 0  9992
2 66409  98.2783  37.1828 0012943 222.8173 137.2014 14.49907319  2767
CHUTIAN-2 B             
1 66410U 25256B   25332.22592117  .00000750  00000+0  20080-3 0  9995
2 66410  98.2812  37.2670 0013007 226.8461 133.1647 14.50994739  2776
